[
    {
        "Altitude(m)": 558927.9732018736,
        "Argument of Periapsis(deg)": 0.013245982221427002,
        "Eccentricity": 0.0,
        "Inclination(deg)": 53.0,
        "Latitude(deg)": -20.10396906371476,
        "Longitude(deg)": -42.49755814735188,
        "Mean Anomaly(deg)": -25.271314264844822,
        "RAAN(deg)": 74.98028673705603,
        "Satellite Name": "Starlink Shell 1 349",
        "Satellite Number": 349,
        "Semi-Major Axis(m)": 6931778.249405717,
        "Time(s)": 380
    },
    {
        "Altitude(m)": 558770.9404956287,
        "Argument of Periapsis(deg)": 0.013594560700938237,
        "Eccentricity": 0.0,
        "Inclination(deg)": 53.0,
        "Latitude(deg)": -19.619917487760166,
        "Longitude(deg)": -42.113839930223676,
        "Mean Anomaly(deg)": -24.644483061288067,
        "RAAN(deg)": 74.97976796697857,
        "Satellite Name": "Starlink Shell 1 349",
        "Satellite Number": 349,
        "Semi-Major Axis(m)": 6931778.249405717,
        "Time(s)": 390
    },
    {
        "Altitude(m)": 558615.4155358424,
        "Argument of Periapsis(deg)": 0.013943139180449475,
        "Eccentricity": 0.0,
        "Inclination(deg)": 53.0,
        "Latitude(deg)": -19.134828529423093,
        "Longitude(deg)": -41.73264682823472,
        "Mean Anomaly(deg)": -24.017651857731348,
        "RAAN(deg)": 74.9792491969011,
        "Satellite Name": "Starlink Shell 1 349",
        "Satellite Number": 349,
        "Semi-Major Axis(m)": 6931778.249405717,
        "Time(s)": 400
    },
    {
        "Altitude(m)": 558461.451793885,
        "Argument of Periapsis(deg)": 0.014291717659960712,
        "Eccentricity": 0.0,
        "Inclination(deg)": 53.0,
        "Latitude(deg)": -18.648734856052304,
        "Longitude(deg)": -41.35390149965763,
        "Mean Anomaly(deg)": -23.390820654174636,
        "RAAN(deg)": 74.97873042682362,
        "Satellite Name": "Starlink Shell 1 349",
        "Satellite Number": 349,
        "Semi-Major Axis(m)": 6931778.249405717,
        "Time(s)": 410
    },
    {
        "Altitude(m)": 558309.1018963071,
        "Argument of Periapsis(deg)": 0.014640296139471948,
        "Eccentricity": 0.0,
        "Inclination(deg)": 53.0,
        "Latitude(deg)": -18.161668582565678,
        "Longitude(deg)": -40.97752809976673,
        "Mean Anomaly(deg)": -22.76398945061789,
        "RAAN(deg)": 74.97821165674615,
        "Satellite Name": "Starlink Shell 1 349",
        "Satellite Number": 349,
        "Semi-Major Axis(m)": 6931778.249405717,
        "Time(s)": 420
    },
    {
        "Altitude(m)": 558158.4176014684,
        "Argument of Periapsis(deg)": 0.014988874618983185,
        "Eccentricity": 0.0,
        "Inclination(deg)": 53.0,
        "Latitude(deg)": -17.673661291430157,
        "Longitude(deg)": -40.60345175126688,
        "Mean Anomaly(deg)": -22.137158247061176,
        "RAAN(deg)": 74.97769288666868,
        "Satellite Name": "Starlink Shell 1 349",
        "Satellite Number": 349,
        "Semi-Major Axis(m)": 6931778.249405717,
        "Time(s)": 430
    },
    {
        "Altitude(m)": 558009.4497765991,
        "Argument of Periapsis(deg)": 0.015337453098494424,
        "Eccentricity": 0.0,
        "Inclination(deg)": 53.0,
        "Latitude(deg)": -17.184744052202497,
        "Longitude(deg)": -40.231598014404916,
        "Mean Anomaly(deg)": -21.51032704350451,
        "RAAN(deg)": 74.9771741165912,
        "Satellite Name": "Starlink Shell 1 349",
        "Satellite Number": 349,
        "Semi-Major Axis(m)": 6931778.249405717,
        "Time(s)": 440
    },
    {
        "Altitude(m)": 557862.248375301,
        "Argument of Periapsis(deg)": 0.01568603157800566,
        "Eccentricity": 0.0,
        "Inclination(deg)": 53.0,
        "Latitude(deg)": -16.694947440643894,
        "Longitude(deg)": -39.861893869686455,
        "Mean Anomaly(deg)": -20.88349583994776,
        "RAAN(deg)": 74.97665534651374,
        "Satellite Name": "Starlink Shell 1 349",
        "Satellite Number": 349,
        "Semi-Major Axis(m)": 6931778.249405717,
        "Time(s)": 450
    },
    {
        "Altitude(m)": 557716.8624154862,
        "Argument of Periapsis(deg)": 0.0160346100575169,
        "Eccentricity": 0.0,
        "Inclination(deg)": 53.0,
        "Latitude(deg)": -16.204301557416407,
        "Longitude(deg)": -39.494267187496824,
        "Mean Anomaly(deg)": -20.256664636391044,
        "RAAN(deg)": 74.97613657643626,
        "Satellite Name": "Starlink Shell 1 349",
        "Satellite Number": 349,
        "Semi-Major Axis(m)": 6931778.249405717,
        "Time(s)": 460
    },
    {
        "Altitude(m)": 557573.3399577643,
        "Argument of Periapsis(deg)": 0.016383188537028134,
        "Eccentricity": 0.0,
        "Inclination(deg)": 53.0,
        "Latitude(deg)": -15.712836046373418,
        "Longitude(deg)": -39.12864619753935,
        "Mean Anomaly(deg)": -19.629833432834328,
        "RAAN(deg)": 74.97561780635878,
        "Satellite Name": "Starlink Shell 1 349",
        "Satellite Number": 349,
        "Semi-Major Axis(m)": 6931778.249405717,
        "Time(s)": 470
    },
    {
        "Altitude(m)": 557431.7280843077,
        "Argument of Periapsis(deg)": 0.01673176701653937,
        "Eccentricity": 0.0,
        "Inclination(deg)": 53.0,
        "Latitude(deg)": -15.220580112459112,
        "Longitude(deg)": -38.764960471003164,
        "Mean Anomaly(deg)": -19.003002229277634,
        "RAAN(deg)": 74.97509903628132,
        "Satellite Name": "Starlink Shell 1 349",
        "Satellite Number": 349,
        "Semi-Major Axis(m)": 6931778.249405717,
        "Time(s)": 480
    },
    {
        "Altitude(m)": 557292.0728781783,
        "Argument of Periapsis(deg)": 0.017080345496050607,
        "Eccentricity": 0.0,
        "Inclination(deg)": 53.0,
        "Latitude(deg)": -14.727562539224246,
        "Longitude(deg)": -38.40314038974526,
        "Mean Anomaly(deg)": -18.376171025720918,
        "RAAN(deg)": 74.97458026620384,
        "Satellite Name": "Starlink Shell 1 349",
        "Satellite Number": 349,
        "Semi-Major Axis(m)": 6931778.249405717,
        "Time(s)": 490
    },
    {
        "Altitude(m)": 557154.4194031606,
        "Argument of Periapsis(deg)": 0.017428923975561842,
        "Eccentricity": 0.0,
        "Inclination(deg)": 53.0,
        "Latitude(deg)": -14.233811705972597,
        "Longitude(deg)": -38.04311661539112,
        "Mean Anomaly(deg)": -17.749339822164202,
        "RAAN(deg)": 74.97406149612637,
        "Satellite Name": "Starlink Shell 1 349",
        "Satellite Number": 349,
        "Semi-Major Axis(m)": 6931778.249405717,
        "Time(s)": 500
    },
    {
        "Altitude(m)": 557018.8116840802,
        "Argument of Periapsis(deg)": 0.01777750245507308,
        "Eccentricity": 0.0,
        "Inclination(deg)": 53.0,
        "Latitude(deg)": -13.739355604551935,
        "Longitude(deg)": -37.68482107125321,
        "Mean Anomaly(deg)": -17.1225086186075,
        "RAAN(deg)": 74.9735427260489,
        "Satellite Name": "Starlink Shell 1 349",
        "Satellite Number": 349,
        "Semi-Major Axis(m)": 6931778.249405717,
        "Time(s)": 510
    },
    {
        "Altitude(m)": 556885.2926876273,
        "Argument of Periapsis(deg)": 0.018126080934584315,
        "Eccentricity": 0.0,
        "Inclination(deg)": 53.0,
        "Latitude(deg)": -13.244221855798143,
        "Longitude(deg)": -37.3281864113449,
        "Mean Anomaly(deg)": -16.495677415050743,
        "RAAN(deg)": 74.97302395597143,
        "Satellite Name": "Starlink Shell 1 349",
        "Satellite Number": 349,
        "Semi-Major Axis(m)": 6931778.249405717,
        "Time(s)": 520
    },
    {
        "Altitude(m)": 556753.9043037345,
        "Argument of Periapsis(deg)": 0.018474659414095554,
        "Eccentricity": 0.0,
        "Inclination(deg)": 53.0,
        "Latitude(deg)": -12.748437725646797,
        "Longitude(deg)": -36.97314548938306,
        "Mean Anomaly(deg)": -15.868846211494072,
        "RAAN(deg)": 74.97250518589395,
        "Satellite Name": "Starlink Shell 1 349",
        "Satellite Number": 349,
        "Semi-Major Axis(m)": 6931778.249405717,
        "Time(s)": 530
    },
    {
        "Altitude(m)": 556624.6873274178,
        "Argument of Periapsis(deg)": 0.018823237893606792,
        "Eccentricity": 0.0,
        "Inclination(deg)": 53.0,
        "Latitude(deg)": -12.252030140925868,
        "Longitude(deg)": -36.619632340671764,
        "Mean Anomaly(deg)": -15.242015007937326,
        "RAAN(deg)": 74.97198641581649,
        "Satellite Name": "Starlink Shell 1 349",
        "Satellite Number": 349,
        "Semi-Major Axis(m)": 6931778.249405717,
        "Time(s)": 540
    },
    {
        "Altitude(m)": 556497.6814412366,
        "Argument of Periapsis(deg)": 0.019171816373118027,
        "Eccentricity": 0.0,
        "Inclination(deg)": 53.0,
        "Latitude(deg)": -11.755025704839383,
        "Longitude(deg)": -36.267581651136304,
        "Mean Anomaly(deg)": -14.615183804380603,
        "RAAN(deg)": 74.97146764573901,
        "Satellite Name": "Starlink Shell 1 349",
        "Satellite Number": 349,
        "Semi-Major Axis(m)": 6931778.249405717,
        "Time(s)": 550
    },
    {
        "Altitude(m)": 556372.9251982333,
        "Argument of Periapsis(deg)": 0.019520394852629266,
        "Eccentricity": 0.0,
        "Inclination(deg)": 53.0,
        "Latitude(deg)": -11.257450712154627,
        "Longitude(deg)": -35.91692822639321,
        "Mean Anomaly(deg)": -13.988352600823895,
        "RAAN(deg)": 74.97094887566152,
        "Satellite Name": "Starlink Shell 1 349",
        "Satellite Number": 349,
        "Semi-Major Axis(m)": 6931778.249405717,
        "Time(s)": 560
    }
]